IRIDIUM 159             
1 43578U 18061K   25135.31637158  .00000162  00000+0  50661-4 0  9993
2 43578  86.4006 222.9224 0002158  90.2359 269.9084 14.34218285356358
IRIDIUM 180             
1 43922U 19002A   25135.52517203  .00000128  00000+0  38716-4 0  9992
2 43922  86.3985 159.8226 0002220  93.7524 266.3926 14.34217760331994
IRIDIUM 176             
1 43923U 19002B   25135.54790483  .00000350  00000+0  51600-4 0  9992
2 43923  86.6111 159.8091 0002157 107.0119 253.1335 14.72247723340742
IRIDIUM 168             
1 43924U 19002C   25135.58859755  .00000175  00000+0  55587-4 0  9998
2 43924  86.3987 159.8619 0002319  92.7561 267.3900 14.34217832331985
IRIDIUM 173             
1 43925U 19002D   25135.57591241  .00000074  00000+0  19462-4 0  9991
2 43925  86.3982 159.7726 0002181  95.6251 264.5194 14.34217513331973
IRIDIUM 169             
1 43926U 19002E   25135.53234566  .00000367  00000+0  11338-3 0  9990
2 43926  86.4276 191.3612 0002774 126.3498 233.7957 14.38605935333059
IRIDIUM 172             
1 43927U 19002F   25135.43003140  .00000172  00000+0  54522-4 0  9999
2 43927  86.3983 159.8398 0002031  89.6362 270.5067 14.34217598331959
IRIDIUM 175             
1 43928U 19002G   25135.40686983  .00000465  00000+0  69695-4 0  9991
2 43928  86.1476 114.2505 0003383  98.1968 261.9632 14.72244036340713
